[
    {
        "name": "Afghanistan",
        "name_ar": "Ø£ÙØºØ§Ù†Ø³ØªØ§Ù†",
        "phone_code": "+93",
        "currency": "AFN",
        "iso2": "AF",
        "flag": "ğŸ‡¦ğŸ‡«"
    },
    {
        "name": "Albania",
        "name_ar": "Ø£Ù„Ø¨Ø§Ù†ÙŠØ§",
        "phone_code": "+355",
        "currency": "ALL",
        "iso2": "AL",
        "flag": "ğŸ‡¦ğŸ‡±"
    },
    {
        "name": "Algeria",
        "name_ar": "Ø§Ù„Ø¬Ø²Ø§Ø¦Ø±",
        "phone_code": "+213",
        "currency": "DZD",
        "iso2": "DZ",
        "flag": "ğŸ‡©ğŸ‡¿"
    },
    {
        "name": "Andorra",
        "name_ar": "Ø£Ù†Ø¯ÙˆØ±Ø§",
        "phone_code": "+376",
        "currency": "EUR",
        "iso2": "AD",
        "flag": "ğŸ‡¦ğŸ‡©"
    },
    {
        "name": "Angola",
        "name_ar": "Ø£Ù†ØºÙˆÙ„Ø§",
        "phone_code": "+244",
        "currency": "AOA",
        "iso2": "AO",
        "flag": "ğŸ‡¦ğŸ‡´"
    },
    {
        "name": "Anguilla",
        "name_ar": "Ø£Ù†ØºÙˆÙŠÙ„Ø§",
        "phone_code": "+1264",
        "currency": "XCD",
        "iso2": "AI",
        "flag": "ğŸ‡¦ğŸ‡®"
    },
    {
        "name": "Antigua and Barbuda",
        "name_ar": "Ø£Ù†ØªÙŠØºÙˆØ§ ÙˆØ¨Ø±Ø¨ÙˆØ¯Ø§",
        "phone_code": "+1268",
        "currency": "XCD",
        "iso2": "AG",
        "flag": "ğŸ‡¦ğŸ‡¬"
    },
    {
        "name": "Argentina",
        "name_ar": "Ø§Ù„Ø£Ø±Ø¬Ù†ØªÙŠÙ†",
        "phone_code": "+54",
        "currency": "ARS",
        "iso2": "AR",
        "flag": "ğŸ‡¦ğŸ‡·"
    },
    {
        "name": "Armenia",
        "name_ar": "Ø£Ø±Ù…ÙŠÙ†ÙŠØ§",
        "phone_code": "+374",
        "currency": "AMD",
        "iso2": "AM",
        "flag": "ğŸ‡¦ğŸ‡²"
    },
    {
        "name": "Aruba",
        "name_ar": "Ø£Ø±ÙˆØ¨Ø§",
        "phone_code": "+297",
        "currency": "AWG",
        "iso2": "AW",
        "flag": "ğŸ‡¦ğŸ‡¼"
    },
    {
        "name": "Australia",
        "name_ar": "Ø£Ø³ØªØ±Ø§Ù„ÙŠØ§",
        "phone_code": "+61",
        "currency": "AUD",
        "iso2": "AU",
        "flag": "ğŸ‡¦ğŸ‡º"
    },
    {
        "name": "Austria",
        "name_ar": "Ø§Ù„Ù†Ù…Ø³Ø§",
        "phone_code": "+43",
        "currency": "EUR",
        "iso2": "AT",
        "flag": "ğŸ‡¦ğŸ‡¹"
    },
    {
        "name": "Azerbaijan",
        "name_ar": "Ø£Ø°Ø±Ø¨ÙŠØ¬Ø§Ù†",
        "phone_code": "+994",
        "currency": "AZN",
        "iso2": "AZ",
        "flag": "ğŸ‡¦ğŸ‡¿"
    },
    {
        "name": "Bahamas",
        "name_ar": "Ø¬Ø²Ø± Ø§Ù„Ø¨Ù‡Ø§Ù…Ø§",
        "phone_code": "+1242",
        "currency": "BSD",
        "iso2": "BS",
        "flag": "ğŸ‡§ğŸ‡¸"
    },
    {
        "name": "Bahrain",
        "name_ar": "Ø§Ù„Ø¨Ø­Ø±ÙŠÙ†",
        "phone_code": "+973",
        "currency": "BHD",
        "iso2": "BH",
        "flag": "ğŸ‡§ğŸ‡­"
    },
    {
        "name": "Bangladesh",
        "name_ar": "Ø¨Ù†Ø¬Ù„Ø§Ø¯ÙŠØ´",
        "phone_code": "+880",
        "currency": "BDT",
        "iso2": "BD",
        "flag": "ğŸ‡§ğŸ‡©"
    },
    {
        "name": "Barbados",
        "name_ar": "Ø¨Ø§Ø±Ø¨Ø§Ø¯ÙˆØ³",
        "phone_code": "+1246",
        "currency": "BBD",
        "iso2": "BB",
        "flag": "ğŸ‡§ğŸ‡§"
    },
    {
        "name": "Belarus",
        "name_ar": "Ø¨ÙŠÙ„Ø§Ø±ÙˆØ³",
        "phone_code": "+375",
        "currency": "BYR",
        "iso2": "BY",
        "flag": "ğŸ‡§ğŸ‡¾"
    },
    {
        "name": "Belgium",
        "name_ar": "Ø¨Ù„Ø¬ÙŠÙƒØ§",
        "phone_code": "+32",
        "currency": "EUR",
        "iso2": "BE",
        "flag": "ğŸ‡§ğŸ‡ª"
    },
    {
        "name": "Belize",
        "name_ar": "Ø¨ÙŠÙ„ÙŠØ²",
        "phone_code": "+501",
        "currency": "BZD",
        "iso2": "BZ",
        "flag": "ğŸ‡§ğŸ‡¿"
    },
    {
        "name": "Benin",
        "name_ar": "Ø¨Ù†ÙŠÙ†",
        "phone_code": "+229",
        "currency": "XOF",
        "iso2": "BJ",
        "flag": "ğŸ‡§ğŸ‡¯"
    },
    {
        "name": "Bermuda",
        "name_ar": "Ø¨Ø±Ù…ÙˆØ¯Ø§",
        "phone_code": "+1441",
        "currency": "BMD",
        "iso2": "BM",
        "flag": "ğŸ‡§ğŸ‡²"
    },
    {
        "name": "Bhutan",
        "name_ar": "Ø¨ÙˆØªØ§Ù†",
        "phone_code": "+975",
        "currency": "BTN",
        "iso2": "BT",
        "flag": "ğŸ‡§ğŸ‡¹"
    },
    {
        "name": "Bolivia",
        "name_ar": "Ø¨ÙˆÙ„ÙŠÙÙŠØ§",
        "phone_code": "+591",
        "currency": "BOB",
        "iso2": "BO",
        "flag": "ğŸ‡§ğŸ‡´"
    },
    {
        "name": "Bosnia and Herzegovina",
        "name_ar": "Ø§Ù„Ø¨ÙˆØ³Ù†Ø© ÙˆØ§Ù„Ù‡Ø±Ø³Ùƒ",
        "phone_code": "+387",
        "currency": "BAM",
        "iso2": "BA",
        "flag": "ğŸ‡§ğŸ‡¦"
    },
    {
        "name": "Botswana",
        "name_ar": "Ø¨ÙˆØªØ³ÙˆØ§Ù†Ø§",
        "phone_code": "+267",
        "currency": "BWP",
        "iso2": "BW",
        "flag": "ğŸ‡§ğŸ‡¼"
    },
    {
        "name": "Brazil",
        "name_ar": "Ø§Ù„Ø¨Ø±Ø§Ø²ÙŠÙ„",
        "phone_code": "+55",
        "currency": "BRL",
        "iso2": "BR",
        "flag": "ğŸ‡§ğŸ‡·"
    },
    {
        "name": "British Indian Ocean Territory",
        "name_ar": "Ø¥Ù‚Ù„ÙŠÙ… Ø§Ù„Ù…Ø­ÙŠØ· Ø§Ù„Ù‡Ù†Ø¯ÙŠ Ø§Ù„Ø¨Ø±ÙŠØ·Ø§Ù†ÙŠ",
        "phone_code": "+246",
        "currency": "USD",
        "iso2": "IO",
        "flag": "ğŸ‡®ğŸ‡´"
    },
    {
        "name": "Brunei",
        "name_ar": "Ø¨Ø±ÙˆÙ†Ø§ÙŠ",
        "phone_code": "+673",
        "currency": "BND",
        "iso2": "BN",
        "flag": "ğŸ‡§ğŸ‡³"
    },
    {
        "name": "Bulgaria",
        "name_ar": "Ø¨Ù„ØºØ§Ø±ÙŠØ§",
        "phone_code": "+359",
        "currency": "BGN",
        "iso2": "BG",
        "flag": "ğŸ‡§ğŸ‡¬"
    },
    {
        "name": "Burkina Faso",
        "name_ar": "Ø¨ÙˆØ±ÙƒÙŠÙ†Ø§ ÙØ§Ø³Ùˆ",
        "phone_code": "+226",
        "currency": "XOF",
        "iso2": "BF",
        "flag": "ğŸ‡§ğŸ‡«"
    },
    {
        "name": "Myanmar",
        "name_ar": "Ù…ÙŠØ§Ù†Ù…Ø§Ø±",
        "phone_code": "+95",
        "currency": "MMK",
        "iso2": "MM",
        "flag": "ğŸ‡²ğŸ‡²"
    },
    {
        "name": "Burundi",
        "name_ar": "Ø¨ÙˆØ±ÙˆÙ†Ø¯ÙŠ",
        "phone_code": "+257",
        "currency": "BIF",
        "iso2": "BI",
        "flag": "ğŸ‡§ğŸ‡®"
    },
    {
        "name": "Cambodia",
        "name_ar": "ÙƒØ§Ù…Ø¨ÙˆØ¯ÙŠØ§",
        "phone_code": "+855",
        "currency": "KHR",
        "iso2": "KH",
        "flag": "ğŸ‡°ğŸ‡­"
    },
    {
        "name": "Cameroon",
        "name_ar": "Ø§Ù„ÙƒØ§Ù…ÙŠØ±ÙˆÙ†",
        "phone_code": "+237",
        "currency": "XAF",
        "iso2": "CM",
        "flag": "ğŸ‡¨ğŸ‡²"
    },
    {
        "name": "Canada",
        "name_ar": "ÙƒÙ†Ø¯Ø§",
        "phone_code": "+1",
        "currency": "CAD",
        "iso2": "CA",
        "flag": "ğŸ‡¨ğŸ‡¦"
    },
    {
        "name": "Cape Verde",
        "name_ar": "Ø§Ù„Ø±Ø£Ø³ Ø§Ù„Ø£Ø®Ø¶Ø±",
        "phone_code": "+238",
        "currency": "CVE",
        "iso2": "CV",
        "flag": "ğŸ‡¨ğŸ‡»"
    },
    {
        "name": "Cayman Islands",
        "name_ar": "Ø¬Ø²Ø± ÙƒØ§ÙŠÙ…Ø§Ù†",
        "phone_code": "+1345",
        "currency": "KYD",
        "iso2": "KY",
        "flag": "ğŸ‡°ğŸ‡¾"
    },
    {
        "name": "Central African Republic",
        "name_ar": "Ø¬Ù…Ù‡ÙˆØ±ÙŠØ© Ø£ÙØ±ÙŠÙ‚ÙŠØ§ Ø§Ù„ÙˆØ³Ø·Ù‰",
        "phone_code": "+236",
        "currency": "XAF",
        "iso2": "CF",
        "flag": "ğŸ‡¨ğŸ‡«"
    },
    {
        "name": "Chad",
        "name_ar": "ØªØ´Ø§Ø¯",
        "phone_code": "+235",
        "currency": "XAF",
        "iso2": "TD",
        "flag": "ğŸ‡¹ğŸ‡©"
    },
    {
        "name": "Christmas Island",
        "name_ar": "Ø¬Ø²ÙŠØ±Ø© Ø§Ù„ÙƒØ±ÙŠØ³Ù…Ø§Ø³",
        "phone_code": "+61",
        "currency": "AUD",
        "iso2": "CX",
        "flag": "ğŸ‡¨ğŸ‡½"
    },
    {
        "name": "Cocos (Keeling) Islands",
        "name_ar": "Ø¬Ø²Ø± Ø§Ù„ÙƒÙˆÙƒÙˆØ³ (ÙƒÙŠÙ„ÙŠÙ†)",
        "phone_code": "+61",
        "currency": "AUD",
        "iso2": "CC",
        "flag": "ğŸ‡¨ğŸ‡¨"
    },
    {
        "name": "Cook Islands",
        "name_ar": "Ø¬Ø²Ø± ÙƒÙˆÙƒ",
        "phone_code": "+682",
        "currency": "NZD",
        "iso2": "CK",
        "flag": "ğŸ‡¨ğŸ‡°"
    },
    {
        "name": "Chile",
        "name_ar": "ØªØ´ÙŠÙ„ÙŠ",
        "phone_code": "+56",
        "currency": "CLP",
        "iso2": "CL",
        "flag": "ğŸ‡¨ğŸ‡±"
    },
    {
        "name": "China",
        "name_ar": "Ø§Ù„ØµÙŠÙ†",
        "phone_code": "+86",
        "currency": "CNY",
        "iso2": "CN",
        "flag": "ğŸ‡¨ğŸ‡³"
    },
    {
        "name": "Colombia",
        "name_ar": "ÙƒÙˆÙ„ÙˆÙ…Ø¨ÙŠØ§",
        "phone_code": "+57",
        "currency": "COP",
        "iso2": "CO",
        "flag": "ğŸ‡¨ğŸ‡´"
    },
    {
        "name": "Comoros",
        "name_ar": "Ø¬Ø²Ø± Ø§Ù„Ù‚Ù…Ø±",
        "phone_code": "+269",
        "currency": "KMF",
        "iso2": "KM",
        "flag": "ğŸ‡°ğŸ‡²"
    },
    {
        "name": "Congo",
        "name_ar": "Ø§Ù„ÙƒÙˆÙ†ØºÙˆ",
        "phone_code": "+242",
        "currency": "XAF",
        "iso2": "CG",
        "flag": "ğŸ‡¨ğŸ‡¬"
    },
    {
        "name": "Costa Rica",
        "name_ar": "ÙƒÙˆØ³ØªØ§Ø±ÙŠÙƒØ§",
        "phone_code": "+506",
        "currency": "CRC",
        "iso2": "CR",
        "flag": "ğŸ‡¨ğŸ‡·"
    },
    {
        "name": "Croatia",
        "name_ar": "ÙƒØ±ÙˆØ§ØªÙŠØ§",
        "phone_code": "+385",
        "currency": "HRK",
        "iso2": "HR",
        "flag": "ğŸ‡­ğŸ‡·"
    },
    {
        "name": "Cuba",
        "name_ar": "ÙƒÙˆØ¨Ø§",
        "phone_code": "+53",
        "currency": "CUP",
        "iso2": "CU",
        "flag": "ğŸ‡¨ğŸ‡º"
    },
    {
        "name": "Cyprus",
        "name_ar": "Ù‚Ø¨Ø±Øµ",
        "phone_code": "+357",
        "currency": "EUR",
        "iso2": "CY",
        "flag": "ğŸ‡¨ğŸ‡¾"
    },
    {
        "name": "Czech Republic",
        "name_ar": "Ø¬Ù…Ù‡ÙˆØ±ÙŠØ© Ø§Ù„ØªØ´ÙŠÙƒ",
        "phone_code": "+420",
        "currency": "CZK",
        "iso2": "CZ",
        "flag": "ğŸ‡¨ğŸ‡¿"
    },
    {
        "name": "Denmark",
        "name_ar": "Ø§Ù„Ø¯Ø§Ù†Ù…Ø§Ø±Ùƒ",
        "phone_code": "+45",
        "currency": "DKK",
        "iso2": "DK",
        "flag": "ğŸ‡©ğŸ‡°"
    },
    {
        "name": "Djibouti",
        "name_ar": "Ø¬ÙŠØ¨ÙˆØªÙŠ",
        "phone_code": "+253",
        "currency": "DJF",
        "iso2": "DJ",
        "flag": "ğŸ‡©ğŸ‡¯"
    },
    {
        "name": "Dominica",
        "name_ar": "Ø¯ÙˆÙ…ÙŠÙ†ÙŠÙƒØ§",
        "phone_code": "+1767",
        "currency": "XCD",
        "iso2": "DM",
        "flag": "ğŸ‡©ğŸ‡²"
    },
    {
        "name": "Dominican Republic",
        "name_ar": "Ø¬Ù…Ù‡ÙˆØ±ÙŠØ© Ø§Ù„Ø¯ÙˆÙ…ÙŠÙ†ÙŠÙƒØ§Ù†",
        "phone_code": "+1849",
        "currency": "DOP",
        "iso2": "DO",
        "flag": "ğŸ‡©ğŸ‡´"
    },
    {
        "name": "Timor-Leste",
        "name_ar": "ØªÙŠÙ…ÙˆØ± Ø§Ù„Ø´Ø±Ù‚ÙŠØ©",
        "phone_code": "+670",
        "currency": "USD",
        "iso2": "TL",
        "flag": "ğŸ‡¹ğŸ‡±"
    },
    {
        "name": "Tokelau",
        "name_ar": "ØªÙˆÙƒÙŠÙ„Ø§Ùˆ",
        "phone_code": "+690",
        "currency": "NZD",
        "iso2": "TK",
        "flag": "ğŸ‡¹ğŸ‡°"
    },
    {
        "name": "Turks and Caicos Islands",
        "name_ar": "Ø¬Ø²Ø± ØªØ±ÙƒØ³ ÙˆÙƒØ§ÙŠÙƒÙˆØ³",
        "phone_code": "+1649",
        "currency": "USD",
        "iso2": "TC",
        "flag": "ğŸ‡¹ğŸ‡¨"
    },
    {
        "name": "Ecuador",
        "name_ar": "Ø¥ÙƒÙˆØ§Ø¯ÙˆØ±",
        "phone_code": "+593",
        "currency": "USD",
        "iso2": "EC",
        "flag": "ğŸ‡ªğŸ‡¨"
    },
    {
        "name": "Egypt",
        "name_ar": "Ù…ØµØ±",
        "phone_code": "+20",
        "currency": "EGP",
        "iso2": "EG",
        "flag": "ğŸ‡ªğŸ‡¬"
    },
    {
        "name": "El Salvador",
        "name_ar": "Ø§Ù„Ø³Ù„ÙØ§Ø¯ÙˆØ±",
        "phone_code": "+503",
        "currency": "USD",
        "iso2": "SV",
        "flag": "ğŸ‡¸ğŸ‡»"
    },
    {
        "name": "Equatorial Guinea",
        "name_ar": "ØºÙŠÙ†ÙŠØ§ Ø§Ù„Ø§Ø³ØªÙˆØ§Ø¦ÙŠØ©",
        "phone_code": "+240",
        "currency": "XAF",
        "iso2": "GQ",
        "flag": "ğŸ‡¬ğŸ‡¶"
    },
    {
        "name": "Eritrea",
        "name_ar": "Ø¥Ø±ÙŠØªØ±ÙŠØ§",
        "phone_code": "+291",
        "currency": "ERN",
        "iso2": "ER",
        "flag": "ğŸ‡ªğŸ‡·"
    },
    {
        "name": "Estonia",
        "name_ar": "Ø¥Ø³ØªÙˆÙ†ÙŠØ§",
        "phone_code": "+372",
        "currency": "EUR",
        "iso2": "EE",
        "flag": "ğŸ‡ªğŸ‡ª"
    },
    {
        "name": "Ethiopia",
        "name_ar": "Ø¥Ø«ÙŠÙˆØ¨ÙŠØ§",
        "phone_code": "+251",
        "currency": "ETB",
        "iso2": "ET",
        "flag": "ğŸ‡ªğŸ‡¹"
    },
    {
        "name": "Faroe Islands",
        "name_ar": "Ø¬Ø²Ø± ÙØ§ÙŠØ±Ùˆ",
        "phone_code": "+298",
        "currency": "DKK",
        "iso2": "FO",
        "flag": "ğŸ‡«ğŸ‡´"
    },
    {
        "name": "Falkland Islands",
        "name_ar": "Ø¬Ø²Ø± ÙÙˆÙƒÙ„Ø§Ù†Ø¯",
        "phone_code": "+500",
        "currency": "FKP",
        "iso2": "FK",
        "flag": "ğŸ‡«ğŸ‡°"
    },
    {
        "name": "Fiji",
        "name_ar": "Ø¬Ø²Ø± ÙÙŠØ¬ÙŠ",
        "phone_code": "+679",
        "currency": "FJD",
        "iso2": "FJ",
        "flag": "ğŸ‡«ğŸ‡¯"
    },
    {
        "name": "Finland",
        "name_ar": "ÙÙ†Ù„Ù†Ø¯Ø§",
        "phone_code": "+358",
        "currency": "EUR",
        "iso2": "FI",
        "flag": "ğŸ‡«ğŸ‡®"
    },
    {
        "name": "France",
        "name_ar": "ÙØ±Ù†Ø³Ø§",
        "phone_code": "+33",
        "currency": "EUR",
        "iso2": "FR",
        "flag": "ğŸ‡«ğŸ‡·"
    },
    {
        "name": "French Polynesia",
        "name_ar": "Ø¨ÙˆÙ„ÙŠÙ†Ø²ÙŠØ§ Ø§Ù„ÙØ±Ù†Ø³ÙŠØ©",
        "phone_code": "+689",
        "currency": "XPF",
        "iso2": "PF",
        "flag": "ğŸ‡µğŸ‡«"
    },
    {
        "name": "Gabon",
        "name_ar": "Ø§Ù„Ø¬Ø§Ø¨ÙˆÙ†",
        "phone_code": "+241",
        "currency": "XAF",
        "iso2": "GA",
        "flag": "ğŸ‡¬ğŸ‡¦"
    },
    {
        "name": "Gambia",
        "name_ar": "Ø¬Ø§Ù…Ø¨ÙŠØ§",
        "phone_code": "+220",
        "currency": "GMD",
        "iso2": "GM",
        "flag": "ğŸ‡¬ğŸ‡²"
    },
    {
        "name": "Georgia",
        "name_ar": "Ø¬ÙˆØ±Ø¬ÙŠØ§",
        "phone_code": "+995",
        "currency": "GEL",
        "iso2": "GE",
        "flag": "ğŸ‡¬ğŸ‡ª"
    },
    {
        "name": "Gibraltar",
        "name_ar": "Ø¬Ø¨Ù„ Ø·Ø§Ø±Ù‚",
        "phone_code": "+350",
        "currency": "GIP",
        "iso2": "GI",
        "flag": "ğŸ‡¬ğŸ‡®"
    },
    {
        "name": "Germany",
        "name_ar": "Ø£Ù„Ù…Ø§Ù†ÙŠØ§",
        "phone_code": "+49",
        "currency": "EUR",
        "iso2": "DE",
        "flag": "ğŸ‡©ğŸ‡ª"
    },
    {
        "name": "Ghana",
        "name_ar": "ØºØ§Ù†Ø§",
        "phone_code": "+233",
        "currency": "GHS",
        "iso2": "GH",
        "flag": "ğŸ‡¬ğŸ‡­"
    },
    {
        "name": "Greece",
        "name_ar": "Ø§Ù„ÙŠÙˆÙ†Ø§Ù†",
        "phone_code": "+30",
        "currency": "EUR",
        "iso2": "GR",
        "flag": "ğŸ‡¬ğŸ‡·"
    },
    {
        "name": "Greenland",
        "name_ar": "Ø¬Ø±ÙŠÙ†Ù„Ø§Ù†Ø¯",
        "phone_code": "+299",
        "currency": "DKK",
        "iso2": "GL",
        "flag": "ğŸ‡¬ğŸ‡±"
    },
    {
        "name": "Guadeloupe",
        "name_ar": "Ø¬ÙˆØ§Ø¯ÙŠÙ„ÙˆØ¨",
        "phone_code": "+590",
        "currency": "EUR",
        "iso2": "GP",
        "flag": "ğŸ‡¬ğŸ‡µ"
    },
    {
        "name": "Grenada",
        "name_ar": "ØºØ±ÙŠÙ†Ø§Ø¯Ø§",
        "phone_code": "+1473",
        "currency": "XCD",
        "iso2": "GD",
        "flag": "ğŸ‡¬ğŸ‡©"
    },
    {
        "name": "Guernsey",
        "name_ar": "Ø¬ÙŠØ±Ù†Ø²ÙŠ",
        "phone_code": "+44",
        "currency": "GBP",
        "iso2": "GG",
        "flag": "ğŸ‡¬ğŸ‡¬"
    },
    {
        "name": "Guatemala",
        "name_ar": "Ø¬ÙˆØ§ØªÙŠÙ…Ø§Ù„Ø§",
        "phone_code": "+502",
        "currency": "GTQ",
        "iso2": "GT",
        "flag": "ğŸ‡¬ğŸ‡¹"
    },
    {
        "name": "Guam",
        "name_ar": "Ø¬ÙˆØ§Ù…",
        "phone_code": "+1671",
        "currency": "USD",
        "iso2": "GU",
        "flag": "ğŸ‡¬ğŸ‡º"
    },
    {
        "name": "Guinea",
        "name_ar": "ØºÙŠÙ†ÙŠØ§",
        "phone_code": "+224",
        "currency": "GNF",
        "iso2": "GN",
        "flag": "ğŸ‡¬ğŸ‡³"
    },
    {
        "name": "Guinea-Bissau",
        "name_ar": "ØºÙŠÙ†ÙŠØ§ Ø¨ÙŠØ³Ø§Ùˆ",
        "phone_code": "+245",
        "currency": "XOF",
        "iso2": "GW",
        "flag": "ğŸ‡¬ğŸ‡¼"
    },
    {
        "name": "Guyana",
        "name_ar": "Ø¬ÙŠØ§Ù†Ø§",
        "phone_code": "+592",
        "currency": "GYD",
        "iso2": "GY",
        "flag": "ğŸ‡¬ğŸ‡¾"
    },
    {
        "name": "Haiti",
        "name_ar": "Ù‡Ø§ÙŠØªÙŠ",
        "phone_code": "+509",
        "currency": "HTG",
        "iso2": "HT",
        "flag": "ğŸ‡­ğŸ‡¹"
    },
    {
        "name": "Heard Island and McDonald Islands",
        "name_ar": "Ø¬Ø²ÙŠØ±Ø© Ù‡ÙŠØ±Ø¯ ÙˆØ¬Ø²Ø± Ù…Ø§ÙƒØ¯ÙˆÙ†Ø§Ù„Ø¯",
        "phone_code": "+ ",
        "currency": "AUD",
        "iso2": "HM",
        "flag": "ğŸ‡­ğŸ‡²"
    },
    {
        "name": "Jordan",
        "name_ar": "Ø§Ù„Ø£Ø±Ø¯Ù†",
        "phone_code": "+962",
        "currency": "JOD",
        "iso2": "JO",
        "flag": "ğŸ‡¯ğŸ‡´"
    },
    {
        "name": "Yemen",
        "name_ar": "Ø§Ù„ÙŠÙ…Ù†",
        "phone_code": "+967",
        "currency": "YER",
        "iso2": "YE",
        "flag": "ğŸ‡¾ğŸ‡ª"
    },
    {
        "name": "Honduras",
        "name_ar": "Ù‡Ù†Ø¯ÙˆØ±Ø§Ø³",
        "phone_code": "+504",
        "currency": "HNL",
        "iso2": "HN",
        "flag": "ğŸ‡­ğŸ‡³"
    },
    {
        "name": "Hong Kong",
        "name_ar": "Ù‡ÙˆÙ†Øº ÙƒÙˆÙ†Øº SAR",
        "phone_code": "+852",
        "currency": "HKD",
        "iso2": "HK",
        "flag": "ğŸ‡­ğŸ‡°"
    },
    {
        "name": "Hungary",
        "name_ar": "Ø§Ù„Ù…Ø¬Ø±",
        "phone_code": "+36",
        "currency": "HUF",
        "iso2": "HU",
        "flag": "ğŸ‡­ğŸ‡º"
    },
    {
        "name": "Iceland",
        "name_ar": "Ø£ÙŠØ³Ù„Ù†Ø¯Ø§",
        "phone_code": "+354",
        "currency": "ISK",
        "iso2": "IS",
        "flag": "ğŸ‡®ğŸ‡¸"
    },
    {
        "name": "India",
        "name_ar": "Ø§Ù„Ù‡Ù†Ø¯",
        "phone_code": "+91",
        "currency": "INR",
        "iso2": "IN",
        "flag": "ğŸ‡®ğŸ‡³"
    },
    {
        "name": "Indonesia",
        "name_ar": "Ø¥Ù†Ø¯ÙˆÙ†ÙŠØ³ÙŠØ§",
        "phone_code": "+62",
        "currency": "IDR",
        "iso2": "ID",
        "flag": "ğŸ‡®ğŸ‡©"
    },
    {
        "name": "Iran",
        "name_ar": "Ø¥ÙŠØ±Ø§Ù†",
        "phone_code": "+98",
        "currency": "IRR",
        "iso2": "IR",
        "flag": "ğŸ‡®ğŸ‡·"
    },
    {
        "name": "Iraq",
        "name_ar": "Ø§Ù„Ø¹Ø±Ø§Ù‚",
        "phone_code": "+964",
        "currency": "IQD",
        "iso2": "IQ",
        "flag": "ğŸ‡®ğŸ‡¶"
    },
    {
        "name": "Ireland",
        "name_ar": "Ø£ÙŠØ±Ù„Ù†Ø¯Ø§",
        "phone_code": "+353",
        "currency": "EUR",
        "iso2": "IE",
        "flag": "ğŸ‡®ğŸ‡ª"
    },
    {
        "name": "Isle of Man",
        "name_ar": "Ø¬Ø²ÙŠØ±Ø© Ù…Ø§Ù†",
        "phone_code": "+44",
        "currency": "GBP",
        "iso2": "IM",
        "flag": "ğŸ‡®ğŸ‡²"
    },
    {
        "name": "Palestine",
        "name_ar": "ÙÙ„Ø³Ø·ÙŠÙ†",
        "phone_code": "+970",
        "currency": "ILS",
        "iso2": "PS",
        "flag": "ğŸ‡µğŸ‡¸"
    },
    {
        "name": "Israel",
        "name_ar": "Ø¥Ø³Ø±Ø§Ø¦ÙŠÙ„",
        "phone_code": "+972",
        "currency": "ILS",
        "iso2": "IL",
        "flag": "ğŸ‡®ğŸ‡±"
    },
    {
        "name": "Italy",
        "name_ar": "Ø¥ÙŠØ·Ø§Ù„ÙŠØ§",
        "phone_code": "+39",
        "currency": "EUR",
        "iso2": "IT",
        "flag": "ğŸ‡®ğŸ‡¹"
    },
    {
        "name": "Ivory Coast",
        "name_ar": "ÙƒÙˆØª Ø¯ÙŠÙÙˆØ§Ø±",
        "phone_code": "+225",
        "currency": "XOF",
        "iso2": "CI",
        "flag": "ğŸ‡¨ğŸ‡®"
    },
    {
        "name": "Jamaica",
        "name_ar": "Ø¬Ø§Ù…Ø§ÙŠÙƒØ§",
        "phone_code": "+1876",
        "currency": "JMD",
        "iso2": "JM",
        "flag": "ğŸ‡¯ğŸ‡²"
    },
    {
        "name": "Jersey",
        "name_ar": "Ø¬ÙŠØ±Ø³ÙŠ",
        "phone_code": "+44",
        "currency": "GBP",
        "iso2": "JE",
        "flag": "ğŸ‡¯ğŸ‡ª"
    },
    {
        "name": "Japan",
        "name_ar": "Ø§Ù„ÙŠØ§Ø¨Ø§Ù†",
        "phone_code": "+81",
        "currency": "JPY",
        "iso2": "JP",
        "flag": "ğŸ‡¯ğŸ‡µ"
    },
    {
        "name": "Kazakhstan",
        "name_ar": "ÙƒØ§Ø²Ø§Ø®Ø³ØªØ§Ù†",
        "phone_code": "+7",
        "currency": "KZT",
        "iso2": "KZ",
        "flag": "ğŸ‡°ğŸ‡¿"
    },
    {
        "name": "Kenya",
        "name_ar": "ÙƒÙŠÙ†ÙŠØ§",
        "phone_code": "+254",
        "currency": "KES",
        "iso2": "KE",
        "flag": "ğŸ‡°ğŸ‡ª"
    },
    {
        "name": "Kiribati",
        "name_ar": "ÙƒÙŠØ±ÙŠØ¨Ø§ØªÙŠ",
        "phone_code": "+686",
        "currency": "AUD",
        "iso2": "KI",
        "flag": "ğŸ‡°ğŸ‡®"
    },
    {
        "name": "North Korea",
        "name_ar": "ÙƒÙˆØ±ÙŠØ§ Ø§Ù„Ø´Ù…Ø§Ù„ÙŠØ©",
        "phone_code": "+850",
        "currency": "KPW",
        "iso2": "KP",
        "flag": "ğŸ‡°ğŸ‡µ"
    },
    {
        "name": "Kosovo",
        "name_ar": "ÙƒÙˆØ³ÙˆÙÙˆ",
        "phone_code": "+383",
        "currency": "EUR",
        "iso2": "XK",
        "flag": "ğŸ‡½ğŸ‡°"
    },
    {
        "name": "Kuwait",
        "name_ar": "Ø§Ù„ÙƒÙˆÙŠØª",
        "phone_code": "+965",
        "currency": "KWD",
        "iso2": "KW",
        "flag": "ğŸ‡°ğŸ‡¼"
    },
    {
        "name": "Kyrgyzstan",
        "name_ar": "Ù‚ÙŠØ±Ù‚ÙŠØ²Ø³ØªØ§Ù†",
        "phone_code": "+996",
        "currency": "KGS",
        "iso2": "KG",
        "flag": "ğŸ‡°ğŸ‡¬"
    },
    {
        "name": "Laos",
        "name_ar": "Ù„Ø§ÙˆØ³",
        "phone_code": "+856",
        "currency": "LAK",
        "iso2": "LA",
        "flag": "ğŸ‡±ğŸ‡¦"
    },
    {
        "name": "Latvia",
        "name_ar": "Ù„Ø§ØªÙÙŠØ§",
        "phone_code": "+371",
        "currency": "EUR",
        "iso2": "LV",
        "flag": "ğŸ‡±ğŸ‡»"
    },
    {
        "name": "Lebanon",
        "name_ar": "Ù„Ø¨Ù†Ø§Ù†",
        "phone_code": "+961",
        "currency": "LBP",
        "iso2": "LB",
        "flag": "ğŸ‡±ğŸ‡§"
    },
    {
        "name": "Lesotho",
        "name_ar": "Ù„ÙŠØ³ÙˆØªÙˆ",
        "phone_code": "+266",
        "currency": "LSL",
        "iso2": "LS",
        "flag": "ğŸ‡±ğŸ‡¸"
    },
    {
        "name": "Liberia",
        "name_ar": "Ù„ÙŠØ¨ÙŠØ±ÙŠØ§",
        "phone_code": "+231",
        "currency": "LRD",
        "iso2": "LR",
        "flag": "ğŸ‡±ğŸ‡·"
    },
    {
        "name": "Libya",
        "name_ar": "Ù„ÙŠØ¨ÙŠØ§",
        "phone_code": "+218",
        "currency": "LYD",
        "iso2": "LY",
        "flag": "ğŸ‡±ğŸ‡¾"
    },
    {
        "name": "Liechtenstein",
        "name_ar": "Ù„Ø®ØªÙ†Ø´ØªØ§ÙŠÙ†",
        "phone_code": "+423",
        "currency": "CHF",
        "iso2": "LI",
        "flag": "ğŸ‡±ğŸ‡®"
    },
    {
        "name": "Luxembourg",
        "name_ar": "Ù„ÙˆÙƒØ³Ù…Ø¨ÙˆØ±Ø¬",
        "phone_code": "+352",
        "currency": "EUR",
        "iso2": "LU",
        "flag": "ğŸ‡±ğŸ‡º"
    },
    {
        "name": "Macedonia",
        "name_ar": "Ù…Ù‚Ø¯ÙˆÙ†ÙŠØ§",
        "phone_code": "+389",
        "currency": "MKD",
        "iso2": "MK",
        "flag": "ğŸ‡²ğŸ‡°"
    },
    {
        "name": "Madagascar",
        "name_ar": "Ù…Ø¯ØºØ´Ù‚Ø±",
        "phone_code": "+261",
        "currency": "MGA",
        "iso2": "MG",
        "flag": "ğŸ‡²ğŸ‡¬"
    },
    {
        "name": "Marshall Islands",
        "name_ar": "Ø¬Ø²Ø± Ù…Ø§Ø±Ø´Ø§Ù„",
        "phone_code": "+692",
        "currency": "USD",
        "iso2": "MH",
        "flag": "ğŸ‡²ğŸ‡­"
    },
    {
        "name": "Macau",
        "name_ar": "Ù…Ø§ÙƒØ§Ùˆ",
        "phone_code": "+853",
        "currency": "MOP",
        "iso2": "MO",
        "flag": "ğŸ‡²ğŸ‡´"
    },
    {
        "name": "Malawi",
        "name_ar": "Ù…Ø§Ù„Ø§ÙˆÙŠ",
        "phone_code": "+265",
        "currency": "MWK",
        "iso2": "MW",
        "flag": "ğŸ‡²ğŸ‡¼"
    },
    {
        "name": "Malaysia",
        "name_ar": "Ù…Ø§Ù„ÙŠØ²ÙŠØ§",
        "phone_code": "+60",
        "currency": "MYR",
        "iso2": "MY",
        "flag": "ğŸ‡²ğŸ‡¾"
    },
    {
        "name": "Maldives",
        "name_ar": "Ø¬Ø²Ø± Ø§Ù„Ù…Ø§Ù„Ø¯ÙŠÙ",
        "phone_code": "+960",
        "currency": "MVR",
        "iso2": "MV",
        "flag": "ğŸ‡²ğŸ‡»"
    },
    {
        "name": "Mali",
        "name_ar": "Ù…Ø§Ù„ÙŠ",
        "phone_code": "+223",
        "currency": "XOF",
        "iso2": "ML",
        "flag": "ğŸ‡²ğŸ‡±"
    },
    {
        "name": "Malta",
        "name_ar": "Ù…Ø§Ù„Ø·Ø§",
        "phone_code": "+356",
        "currency": "EUR",
        "iso2": "MT",
        "flag": "ğŸ‡²ğŸ‡¹"
    },
    {
        "name": "Martinique",
        "name_ar": "Ù…Ø§Ø±ØªÙŠÙ†ÙŠÙƒ",
        "phone_code": "+596",
        "currency": "EUR",
        "iso2": "MQ",
        "flag": "ğŸ‡²ğŸ‡¶"
    },
    {
        "name": "Mauritania",
        "name_ar": "Ù…ÙˆØ±ÙŠØªØ§Ù†ÙŠØ§",
        "phone_code": "+222",
        "currency": "MRO",
        "iso2": "MR",
        "flag": "ğŸ‡²ğŸ‡·"
    },
    {
        "name": "Mauritius",
        "name_ar": "Ù…ÙˆØ±ÙŠØ´ÙŠÙˆØ³",
        "phone_code": "+230",
        "currency": "MUR",
        "iso2": "MU",
        "flag": "ğŸ‡²ğŸ‡º"
    },
    {
        "name": "Mayotte",
        "name_ar": "Ù…Ø§ÙŠÙˆØª",
        "phone_code": "+262",
        "currency": "EUR",
        "iso2": "YT",
        "flag": "ğŸ‡¾ğŸ‡¹"
    },
    {
        "name": "Mexico",
        "name_ar": "Ø§Ù„Ù…ÙƒØ³ÙŠÙƒ",
        "phone_code": "+52",
        "currency": "MXN",
        "iso2": "MX",
        "flag": "ğŸ‡²ğŸ‡½"
    },
    {
        "name": "Moldova",
        "name_ar": "Ù…ÙˆÙ„Ø¯ÙˆÙØ§",
        "phone_code": "+373",
        "currency": "MDL",
        "iso2": "MD",
        "flag": "ğŸ‡²ğŸ‡©"
    },
    {
        "name": "Mongolia",
        "name_ar": "Ù…Ù†ØºÙˆÙ„ÙŠØ§",
        "phone_code": "+976",
        "currency": "MNT",
        "iso2": "MN",
        "flag": "ğŸ‡²ğŸ‡³"
    },
    {
        "name": "Montenegro",
        "name_ar": "Ù…ÙˆÙ†ØªÙŠÙ†ÙŠØºØ±Ùˆ",
        "phone_code": "+382",
        "currency": "EUR",
        "iso2": "ME",
        "flag": "ğŸ‡²ğŸ‡ª"
    },
    {
        "name": "Monaco",
        "name_ar": "Ù…ÙˆÙ†Ø§ÙƒÙˆ",
        "phone_code": "+377",
        "currency": "EUR",
        "iso2": "MC",
        "flag": "ğŸ‡²ğŸ‡¨"
    },
    {
        "name": "Montserrat",
        "name_ar": "Ù…ÙˆÙ†ØªØ³ÙŠØ±Ø§Øª",
        "phone_code": "+1664",
        "currency": "XCD",
        "iso2": "MS",
        "flag": "ğŸ‡²ğŸ‡¸"
    },
    {
        "name": "Morocco",
        "name_ar": "Ø§Ù„Ù…ØºØ±Ø¨",
        "phone_code": "+212",
        "currency": "MAD",
        "iso2": "MA",
        "flag": "ğŸ‡²ğŸ‡¦"
    },
    {
        "name": "Mozambique",
        "name_ar": "Ù…ÙˆØ²Ù…Ø¨ÙŠÙ‚",
        "phone_code": "+258",
        "currency": "MZN",
        "iso2": "MZ",
        "flag": "ğŸ‡²ğŸ‡¿"
    },
    {
        "name": "Namibia",
        "name_ar": "Ù†Ø§Ù…ÙŠØ¨ÙŠØ§",
        "phone_code": "+264",
        "currency": "NAD",
        "iso2": "NA",
        "flag": "ğŸ‡³ğŸ‡¦"
    },
    {
        "name": "Nauru",
        "name_ar": "Ù†Ø§ÙˆØ±Ùˆ",
        "phone_code": "+674",
        "currency": "AUD",
        "iso2": "NR",
        "flag": "ğŸ‡³ğŸ‡·"
    },
    {
        "name": "Nepal",
        "name_ar": "Ù†ÙŠØ¨Ø§Ù„",
        "phone_code": "+977",
        "currency": "NPR",
        "iso2": "NP",
        "flag": "ğŸ‡³ğŸ‡µ"
    },
    {
        "name": "Netherlands",
        "name_ar": "Ù‡ÙˆÙ„Ù†Ø¯Ø§",
        "phone_code": "+31",
        "currency": "EUR",
        "iso2": "NL",
        "flag": "ğŸ‡³ğŸ‡±"
    },
    {
        "name": "New Caledonia",
        "name_ar": "ÙƒØ§Ù„ÙŠØ¯ÙˆÙ†ÙŠØ§ Ø§Ù„Ø¬Ø¯ÙŠØ¯Ø©",
        "phone_code": "+687",
        "currency": "XPF",
        "iso2": "NC",
        "flag": "ğŸ‡³ğŸ‡¨"
    },
    {
        "name": "New Zealand",
        "name_ar": "Ù†ÙŠÙˆØ²ÙŠÙ„Ù†Ø¯Ø§",
        "phone_code": "+64",
        "currency": "NZD",
        "iso2": "NZ",
        "flag": "ğŸ‡³ğŸ‡¿"
    },
    {
        "name": "Nicaragua",
        "name_ar": "Ù†ÙŠÙƒØ§Ø±Ø§Ø¬ÙˆØ§",
        "phone_code": "+505",
        "currency": "NIO",
        "iso2": "NI",
        "flag": "ğŸ‡³ğŸ‡®"
    },
    {
        "name": "Niger",
        "name_ar": "Ø§Ù„Ù†ÙŠØ¬Ø±",
        "phone_code": "+227",
        "currency": "XOF",
        "iso2": "NE",
        "flag": "ğŸ‡³ğŸ‡ª"
    },
    {
        "name": "Nigeria",
        "name_ar": "Ù†ÙŠØ¬ÙŠØ±ÙŠØ§",
        "phone_code": "+234",
        "currency": "NGN",
        "iso2": "NG",
        "flag": "ğŸ‡³ğŸ‡¬"
    },
    {
        "name": "Norway",
        "name_ar": "Ø§Ù„Ù†Ø±ÙˆÙŠØ¬",
        "phone_code": "+47",
        "currency": "NOK",
        "iso2": "NO",
        "flag": "ğŸ‡³ğŸ‡´"
    },
    {
        "name": "Niue",
        "name_ar": "Ù†ÙŠÙˆØ§",
        "phone_code": "+683",
        "currency": "NZD",
        "iso2": "NU",
        "flag": "ğŸ‡³ğŸ‡º"
    },
    {
        "name": "Norfolk Island",
        "name_ar": "Ø¬Ø²ÙŠØ±Ø© Ù†ÙˆØ±ÙÙˆÙƒ",
        "phone_code": "+672",
        "currency": "AUD",
        "iso2": "NF",
        "flag": "ğŸ‡³ğŸ‡«"
    },
    {
        "name": "Northern Mariana Islands",
        "name_ar": "Ø¬Ø²Ø± Ù…Ø§Ø±ÙŠØ§Ù†Ø§ Ø§Ù„Ø´Ù…Ø§Ù„ÙŠØ©",
        "phone_code": "+1670",
        "currency": "USD",
        "iso2": "MP",
        "flag": "ğŸ‡²ğŸ‡µ"
    },
    {
        "name": "Oman",
        "name_ar": "Ø¹Ù…Ø§Ù†",
        "phone_code": "+968",
        "currency": "OMR",
        "iso2": "OM",
        "flag": "ğŸ‡´ğŸ‡²"
    },
    {
        "name": "Pakistan",
        "name_ar": "Ø¨Ø§ÙƒØ³ØªØ§Ù†",
        "phone_code": "+92",
        "currency": "PKR",
        "iso2": "PK",
        "flag": "ğŸ‡µğŸ‡°"
    },
    {
        "name": "Pitcairn",
        "name_ar": "Ø¬Ø²Ø± Ø§Ù„Ø¨ØªÙƒØ§Ø±ÙŠÙ†",
        "phone_code": "+870",
        "currency": "NZD",
        "iso2": "PN",
        "flag": "ğŸ‡µğŸ‡³"
    },
    {
        "name": "Palau",
        "name_ar": "Ø¨Ø§Ù„Ø§Ùˆ",
        "phone_code": "+680",
        "currency": "USD",
        "iso2": "PW",
        "flag": "ğŸ‡µğŸ‡¼"
    },
    {
        "name": "Panama",
        "name_ar": "Ø¨Ù†Ù…Ø§",
        "phone_code": "+507",
        "currency": "PAB",
        "iso2": "PA",
        "flag": "ğŸ‡µğŸ‡¦"
    },
    {
        "name": "Papua New Guinea",
        "name_ar": "Ø¨Ø§Ø¨ÙˆØ§-ØºÙŠÙ†ÙŠØ§ Ø§Ù„Ø¬Ø¯ÙŠØ¯Ø©",
        "phone_code": "+675",
        "currency": "PGK",
        "iso2": "PG",
        "flag": "ğŸ‡µğŸ‡¬"
    },
    {
        "name": "Paraguay",
        "name_ar": "Ø¨Ø§Ø±Ø§Ø¬ÙˆØ§ÙŠ",
        "phone_code": "+595",
        "currency": "PYG",
        "iso2": "PY",
        "flag": "ğŸ‡µğŸ‡¾"
    },
    {
        "name": "Peru",
        "name_ar": "Ø¨ÙŠØ±Ùˆ",
        "phone_code": "+51",
        "currency": "PEN",
        "iso2": "PE",
        "flag": "ğŸ‡µğŸ‡ª"
    },
    {
        "name": "Philippines",
        "name_ar": "Ø§Ù„ÙÙ„Ø¨ÙŠÙ†",
        "phone_code": "+63",
        "currency": "PHP",
        "iso2": "PH",
        "flag": "ğŸ‡µğŸ‡­"
    },
    {
        "name": "Poland",
        "name_ar": "Ø¨ÙˆÙ„Ù†Ø¯Ø§",
        "phone_code": "+48",
        "currency": "PLN",
        "iso2": "PL",
        "flag": "ğŸ‡µğŸ‡±"
    },
    {
        "name": "Portugal",
        "name_ar": "Ø§Ù„Ø¨Ø±ØªØºØ§Ù„",
        "phone_code": "+351",
        "currency": "EUR",
        "iso2": "PT",
        "flag": "ğŸ‡µğŸ‡¹"
    },
    {
        "name": "Puerto Rico",
        "name_ar": "Ø¨ÙˆØ±ØªÙˆ Ø±ÙŠÙƒÙˆ",
        "phone_code": "+1939",
        "currency": "USD",
        "iso2": "PR",
        "flag": "ğŸ‡µğŸ‡·"
    },
    {
        "name": "South Korea",
        "name_ar": "ÙƒÙˆØ±ÙŠØ§",
        "phone_code": "+82",
        "currency": "KRW",
        "iso2": "KR",
        "flag": "ğŸ‡°ğŸ‡·"
    },
    {
        "name": "Lithuania",
        "name_ar": "Ù„ÙŠØªÙˆØ§Ù†ÙŠØ§",
        "phone_code": "+370",
        "currency": "LTL",
        "iso2": "LT",
        "flag": "ğŸ‡±ğŸ‡¹"
    },
    {
        "name": "Qatar",
        "name_ar": "Ù‚Ø·Ø±",
        "phone_code": "+974",
        "currency": "QAR",
        "iso2": "QA",
        "flag": "ğŸ‡¶ğŸ‡¦"
    },
    {
        "name": "Romania",
        "name_ar": "Ø±ÙˆÙ…Ø§Ù†ÙŠØ§",
        "phone_code": "+40",
        "currency": "RON",
        "iso2": "RO",
        "flag": "ğŸ‡·ğŸ‡´"
    },
    {
        "name": "Russia",
        "name_ar": "Ø±ÙˆØ³ÙŠØ§",
        "phone_code": "+7",
        "currency": "RUB",
        "iso2": "RU",
        "flag": "ğŸ‡·ğŸ‡º"
    },
    {
        "name": "Rwanda",
        "name_ar": "Ø±ÙˆØ§Ù†Ø¯Ø§",
        "phone_code": "+250",
        "currency": "RWF",
        "iso2": "RW",
        "flag": "ğŸ‡·ğŸ‡¼"
    },
    {
        "name": "RÃ©union",
        "name_ar": "Ø±ÙŠÙˆÙ†ÙŠÙˆÙ†",
        "phone_code": "+262",
        "currency": "EUR",
        "iso2": "RE",
        "flag": "ğŸ‡·ğŸ‡ª"
    },
    {
        "name": "Samoa",
        "name_ar": "Ø³Ø§Ù…ÙˆØ§",
        "phone_code": "+685",
        "currency": "WST",
        "iso2": "WS",
        "flag": "ğŸ‡¼ğŸ‡¸"
    },
    {
        "name": "Saint Lucia",
        "name_ar": "Ø³Ø§Ù†Øª Ù„ÙˆØ´ÙŠØ§",
        "phone_code": "+1758",
        "currency": "XCD",
        "iso2": "LC",
        "flag": "ğŸ‡±ğŸ‡¨"
    },
    {
        "name": "San Marino",
        "name_ar": "Ø³Ø§Ù† Ù…Ø§Ø±ÙŠÙ†Ùˆ",
        "phone_code": "+378",
        "currency": "EUR",
        "iso2": "SM",
        "flag": "ğŸ‡¸ğŸ‡²"
    },
    {
        "name": "Saint Kitts and Nevis",
        "name_ar": "Ø³Ø§Ù†Øª ÙƒÙŠØªØ³ ÙˆÙ†ÙŠÙÙŠØ³",
        "phone_code": "+1869",
        "currency": "XCD",
        "iso2": "KN",
        "flag": "ğŸ‡°ğŸ‡³"
    },
    {
        "name": "Saint Pierre and Miquelon",
        "name_ar": "Ø³Ø§Ù†Øª Ø¨ÙŠÙŠØ± ÙˆÙ…ÙŠÙƒÙˆÙ„ÙˆÙ†",
        "phone_code": "+508",
        "currency": "EUR",
        "iso2": "PM",
        "flag": "ğŸ‡µğŸ‡²"
    },
    {
        "name": "Saint Vincent and the Grenadines",
        "name_ar": "Ø³Ø§Ù†Øª ÙÙŠÙ†Ø³Ù†Øª ÙˆØ¬Ø±ÙŠÙ†Ø§Ø¯ÙŠÙ†Ø²",
        "phone_code": "+1784",
        "currency": "XCD",
        "iso2": "VC",
        "flag": "ğŸ‡»ğŸ‡¨"
    },
    {
        "name": "Saudi Arabia",
        "name_ar": "Ø§Ù„Ø³Ø¹ÙˆØ¯ÙŠØ©",
        "phone_code": "+966",
        "currency": "SAR",
        "iso2": "SA",
        "flag": "ğŸ‡¸ğŸ‡¦"
    },
    {
        "name": "Senegal",
        "name_ar": "Ø§Ù„Ø³Ù†ØºØ§Ù„",
        "phone_code": "+221",
        "currency": "XOF",
        "iso2": "SN",
        "flag": "ğŸ‡¸ğŸ‡³"
    },
    {
        "name": "South Georgia and the South Sandwich Islands",
        "name_ar": "Ø¬ÙˆØ±Ø¬ÙŠØ§ Ø§Ù„Ø¬Ù†ÙˆØ¨ÙŠØ© ÙˆØ¬Ø²Ø± Ø³Ø§Ù†Ø¯ÙˆÙŠØªØ´ Ø§Ù„Ø¬Ù†ÙˆØ¨ÙŠØ©",
        "phone_code": "+500",
        "currency": "GBP",
        "iso2": "GS",
        "flag": "ğŸ‡¬ğŸ‡¸"
    },
    {
        "name": "Sao Tome and Principe",
        "name_ar": "Ø³Ø§ÙˆØªÙˆÙ…Ø§ÙŠ ÙˆØ¨Ø±ÙŠÙ†Ø³ÙŠØ¨Ø§",
        "phone_code": "+239",
        "currency": "STD",
        "iso2": "ST",
        "flag": "ğŸ‡¸ğŸ‡¹"
    },
    {
        "name": "Sierra Leone",
        "name_ar": "Ø³ÙŠØ±Ø§Ù„ÙŠÙˆÙ†",
        "phone_code": "+232",
        "currency": "SLL",
        "iso2": "SL",
        "flag": "ğŸ‡¸ğŸ‡±"
    },
    {
        "name": "Serbia",
        "name_ar": "ØµØ±Ø¨ÙŠØ§",
        "phone_code": "+381",
        "currency": "RSD",
        "iso2": "RS",
        "flag": "ğŸ‡·ğŸ‡¸"
    },
    {
        "name": "Seychelles",
        "name_ar": "Ø³ÙŠØ´Ù„",
        "phone_code": "+248",
        "currency": "SCR",
        "iso2": "SC",
        "flag": "ğŸ‡¸ğŸ‡¨"
    },
    {
        "name": "Singapore",
        "name_ar": "Ø³Ù†ØºØ§ÙÙˆØ±Ø©",
        "phone_code": "+65",
        "currency": "SGD",
        "iso2": "SG",
        "flag": "ğŸ‡¸ğŸ‡¬"
    },
    {
        "name": "Slovakia",
        "name_ar": "Ø³Ù„ÙˆÙØ§ÙƒÙŠØ§",
        "phone_code": "+421",
        "currency": "EUR",
        "iso2": "SK",
        "flag": "ğŸ‡¸ğŸ‡°"
    },
    {
        "name": "Slovenia",
        "name_ar": "Ø³Ù„ÙˆÙÙŠÙ†ÙŠØ§",
        "phone_code": "+386",
        "currency": "EUR",
        "iso2": "SI",
        "flag": "ğŸ‡¸ğŸ‡®"
    },
    {
        "name": "Solomon Islands",
        "name_ar": "Ø¬Ø²Ø± Ø³ÙˆÙ„ÙˆÙ…ÙˆÙ†",
        "phone_code": "+677",
        "currency": "SBD",
        "iso2": "SB",
        "flag": "ğŸ‡¸ğŸ‡§"
    },
    {
        "name": "Somalia",
        "name_ar": "Ø§Ù„ØµÙˆÙ…Ø§Ù„",
        "phone_code": "+252",
        "currency": "SOS",
        "iso2": "SO",
        "flag": "ğŸ‡¸ğŸ‡´"
    },
    {
        "name": "South Africa",
        "name_ar": "Ø¬Ù†ÙˆØ¨ Ø£ÙØ±ÙŠÙ‚ÙŠØ§",
        "phone_code": "+27",
        "currency": "ZAR",
        "iso2": "ZA",
        "flag": "ğŸ‡¿ğŸ‡¦"
    },
    {
        "name": "Spain",
        "name_ar": "Ø£Ø³Ø¨Ø§Ù†ÙŠØ§",
        "phone_code": "+34",
        "currency": "EUR",
        "iso2": "ES",
        "flag": "ğŸ‡ªğŸ‡¸"
    },
    {
        "name": "Sri Lanka",
        "name_ar": "Ø³ÙŠØ±ÙŠÙ„Ø§Ù†ÙƒØ§",
        "phone_code": "+94",
        "currency": "LKR",
        "iso2": "LK",
        "flag": "ğŸ‡±ğŸ‡°"
    },
    {
        "name": "Sudan",
        "name_ar": "Ø§Ù„Ø³ÙˆØ¯Ø§Ù†",
        "phone_code": "+249",
        "currency": "SDG",
        "iso2": "SD",
        "flag": "ğŸ‡¸ğŸ‡©"
    },
    {
        "name": "Suriname",
        "name_ar": "Ø³ÙˆØ±ÙŠÙ†Ø§Ù…",
        "phone_code": "+597",
        "currency": "SRD",
        "iso2": "SR",
        "flag": "ğŸ‡¸ğŸ‡·"
    },
    {
        "name": "Swaziland",
        "name_ar": "Ø³ÙˆØ§Ø²ÙŠÙ„Ø§Ù†Ø¯",
        "phone_code": "+268",
        "currency": "SZL",
        "iso2": "SZ",
        "flag": "ğŸ‡¸ğŸ‡¿"
    },
    {
        "name": "Sweden",
        "name_ar": "Ø§Ù„Ø³ÙˆÙŠØ¯",
        "phone_code": "+46",
        "currency": "SEK",
        "iso2": "SE",
        "flag": "ğŸ‡¸ğŸ‡ª"
    },
    {
        "name": "Switzerland",
        "name_ar": "Ø³ÙˆÙŠØ³Ø±Ø§",
        "phone_code": "+41",
        "currency": "CHF",
        "iso2": "CH",
        "flag": "ğŸ‡¨ğŸ‡­"
    },
    {
        "name": "Syria",
        "name_ar": "Ø³ÙˆØ±ÙŠØ§",
        "phone_code": "+963",
        "currency": "SYP",
        "iso2": "SY",
        "flag": "ğŸ‡¸ğŸ‡¾"
    },
    {
        "name": "Taiwan",
        "name_ar": "ØªØ§ÙŠÙˆØ§Ù†",
        "phone_code": "+886",
        "currency": "TWD",
        "iso2": "TW",
        "flag": "ğŸ‡¹ğŸ‡¼"
    },
    {
        "name": "Tanzania",
        "name_ar": "ØªÙ†Ø²Ø§Ù†ÙŠØ§",
        "phone_code": "+255",
        "currency": "TZS",
        "iso2": "TZ",
        "flag": "ğŸ‡¹ğŸ‡¿"
    },
    {
        "name": "Thailand",
        "name_ar": "ØªØ§ÙŠÙ„Ø§Ù†Ø¯",
        "phone_code": "+66",
        "currency": "THB",
        "iso2": "TH",
        "flag": "ğŸ‡¹ğŸ‡­"
    },
    {
        "name": "Togo",
        "name_ar": "ØªÙˆØ¬Ùˆ",
        "phone_code": "+228",
        "currency": "XOF",
        "iso2": "TG",
        "flag": "ğŸ‡¹ğŸ‡¬"
    },
    {
        "name": "Tonga",
        "name_ar": "ØªÙˆÙ†Ø¬Ø§",
        "phone_code": "+676",
        "currency": "TOP",
        "iso2": "TO",
        "flag": "ğŸ‡¹ğŸ‡´"
    },
    {
        "name": "Trinidad and Tobago",
        "name_ar": "ØªØ±ÙŠÙ†ÙŠØ¯Ø§Ø¯ ÙˆØªÙˆØ¨Ø§Ø¬Ùˆ",
        "phone_code": "+1868",
        "currency": "TTD",
        "iso2": "TT",
        "flag": "ğŸ‡¹ğŸ‡¹"
    },
    {
        "name": "Tunisia",
        "name_ar": "ØªÙˆÙ†Ø³",
        "phone_code": "+216",
        "currency": "TND",
        "iso2": "TN",
        "flag": "ğŸ‡¹ğŸ‡³"
    },
    {
        "name": "Turkey",
        "name_ar": "ØªØ±ÙƒÙŠØ§",
        "phone_code": "+90",
        "currency": "TRY",
        "iso2": "TR",
        "flag": "ğŸ‡¹ğŸ‡·"
    },
    {
        "name": "Turkmenistan",
        "name_ar": "ØªØ±ÙƒÙ…Ø§Ù†Ø³ØªØ§Ù†",
        "phone_code": "+993",
        "currency": "TMT",
        "iso2": "TM",
        "flag": "ğŸ‡¹ğŸ‡²"
    },
    {
        "name": "Uganda",
        "name_ar": "Ø£ÙˆØºÙ†Ø¯Ø§",
        "phone_code": "+256",
        "currency": "UGX",
        "iso2": "UG",
        "flag": "ğŸ‡ºğŸ‡¬"
    },
    {
        "name": "Ukraine",
        "name_ar": "Ø£ÙˆÙƒØ±Ø§Ù†ÙŠØ§",
        "phone_code": "+380",
        "currency": "UAH",
        "iso2": "UA",
        "flag": "ğŸ‡ºğŸ‡¦"
    },
    {
        "name": "United Arab Emirates",
        "name_ar": "Ø§Ù„Ø¥Ù…Ø§Ø±Ø§Øª",
        "phone_code": "+971",
        "currency": "AED",
        "iso2": "AE",
        "flag": "ğŸ‡¦ğŸ‡ª"
    },
    {
        "name": "United Kingdom",
        "name_ar": "Ø§Ù„Ù…Ù…Ù„ÙƒØ© Ø§Ù„Ù…ØªØ­Ø¯Ø©",
        "phone_code": "+44",
        "currency": "GBP",
        "iso2": "GB",
        "flag": "ğŸ‡¬ğŸ‡§"
    },
    {
        "name": "United States",
        "name_ar": "Ø§Ù„ÙˆÙ„Ø§ÙŠØ§Øª Ø§Ù„Ù…ØªØ­Ø¯Ø©",
        "phone_code": "+1",
        "currency": "USD",
        "iso2": "US",
        "flag": "ğŸ‡ºğŸ‡¸"
    }
]